{
  "type": "FeatureCollection",
  "features": [
    {
      "type": "Feature",
      "properties": {
        "norad_id": 25590,
        "name": "COSMOS 2361",
        "group": "musson",
        "lat": 44.142559531449244,
        "lon": 152.94758453552976,
        "alt_km": 993.1649952851703,
        "timestamp": "2025-12-18T10:51:26.076240+00:00",
        "meta_object_name": "COSMOS 2361",
        "meta_object_id": "1998-076A",
        "meta_epoch": "2025-12-17T17:33:09.745056",
        "meta_mean_motion": 13.73218124,
        "meta_eccentricity": 0.00301073,
        "meta_inclination": 82.934,
        "meta_ra_of_asc_node": 340.3942,
        "meta_arg_of_pericenter": 251.1312,
        "meta_mean_anomaly": 282.1077,
        "meta_ephemeris_type": 0,
        "meta_classification_type": "U",
        "meta_norad_cat_id": 25590,
        "meta_element_set_no": 999,
        "meta_rev_at_epoch": 35179,
        "meta_bstar": 6.0639335e-05,
        "meta_mean_motion_dot": 7.1e-07,
        "meta_mean_motion_ddot": 0,
        "tle_line1": "1 25590U 98076A   25351.73136279  .00000071  00000+0  60639-4 0  9990",
        "tle_line2": "2 25590  82.9340 340.3942 0030107 251.1312 282.1077 13.73218124351794"
      },
      "geometry": {
        "type": "Point",
        "coordinates": [
          152.94758453552976,
          44.142559531449244
        ]
      }
    },
    {
      "type": "Feature",
      "properties": {
        "norad_id": 26818,
        "name": "COSMOS 2378",
        "group": "musson",
        "lat": -47.12828708469882,
        "lon": -176.82543897767908,
        "alt_km": 972.6896917080921,
        "timestamp": "2025-12-18T10:51:26.076262+00:00",
        "meta_object_name": "COSMOS 2378",
        "meta_object_id": "2001-023A",
        "meta_epoch": "2025-12-17T13:22:03.961056",
        "meta_mean_motion": 13.74142424,
        "meta_eccentricity": 0.00327007,
        "meta_inclination": 82.9271,
        "meta_ra_of_asc_node": 356.1527,
        "meta_arg_of_pericenter": 191.3164,
        "meta_mean_anomaly": 289.0235,
        "meta_ephemeris_type": 0,
        "meta_classification_type": "U",
        "meta_norad_cat_id": 26818,
        "meta_element_set_no": 999,
        "meta_rev_at_epoch": 22989,
        "meta_bstar": 4.9368059e-05,
        "meta_mean_motion_dot": 6.2e-07,
        "meta_mean_motion_ddot": 0,
        "tle_line1": "1 26818U 01023A   25351.55699029  .00000062  00000+0  49368-4 0  9993",
        "tle_line2": "2 26818  82.9271 356.1527 0032700 191.3164 289.0235 13.74142424229893"
      },
      "geometry": {
        "type": "Point",
        "coordinates": [
          -176.82543897767908,
          -47.12828708469882
        ]
      }
    },
    {
      "type": "Feature",
      "properties": {
        "norad_id": 27436,
        "name": "COSMOS 2389",
        "group": "musson",
        "lat": 81.10990784662803,
        "lon": 70.47188443948158,
        "alt_km": 951.2709205903775,
        "timestamp": "2025-12-18T10:51:26.076282+00:00",
        "meta_object_name": "COSMOS 2389",
        "meta_object_id": "2002-026A",
        "meta_epoch": "2025-12-17T16:01:43.938624",
        "meta_mean_motion": 13.75155201,
        "meta_eccentricity": 0.00474751,
        "meta_inclination": 82.9506,
        "meta_ra_of_asc_node": 303.3364,
        "meta_arg_of_pericenter": 47.3519,
        "meta_mean_anomaly": 126.0454,
        "meta_ephemeris_type": 0,
        "meta_classification_type": "U",
        "meta_norad_cat_id": 27436,
        "meta_element_set_no": 999,
        "meta_rev_at_epoch": 18216,
        "meta_bstar": 3.7759431e-05,
        "meta_mean_motion_dot": 5.2e-07,
        "meta_mean_motion_ddot": 0,
        "tle_line1": "1 27436U 02026A   25351.66786966  .00000052  00000+0  37759-4 0  9993",
        "tle_line2": "2 27436  82.9506 303.3364 0047475  47.3519 126.0454 13.75155201182162"
      },
      "geometry": {
        "type": "Point",
        "coordinates": [
          70.47188443948158,
          81.10990784662803
        ]
      }
    },
    {
      "type": "Feature",
      "properties": {
        "norad_id": 27818,
        "name": "COSMOS 2398",
        "group": "musson",
        "lat": -9.604101674818397,
        "lon": -92.71127784992449,
        "alt_km": 1001.6621044953599,
        "timestamp": "2025-12-18T10:51:26.076294+00:00",
        "meta_object_name": "COSMOS 2398",
        "meta_object_id": "2003-023A",
        "meta_epoch": "2025-12-17T21:14:52.360800",
        "meta_mean_motion": 13.72386173,
        "meta_eccentricity": 0.00327318,
        "meta_inclination": 82.9484,
        "meta_ra_of_asc_node": 268.9066,
        "meta_arg_of_pericenter": 98.0305,
        "meta_mean_anomaly": 332.7473,
        "meta_ephemeris_type": 0,
        "meta_classification_type": "U",
        "meta_norad_cat_id": 27818,
        "meta_element_set_no": 999,
        "meta_rev_at_epoch": 12887,
        "meta_bstar": 3.1531562e-05,
        "meta_mean_motion_dot": 4.4e-07,
        "meta_mean_motion_ddot": 0,
        "tle_line1": "1 27818U 03023A   25351.88532825  .00000044  00000+0  31532-4 0  9996",
        "tle_line2": "2 27818  82.9484 268.9066 0032731  98.0305 332.7473 13.72386173128877"
      },
      "geometry": {
        "type": "Point",
        "coordinates": [
          -92.71127784992449,
          -9.604101674818397
        ]
      }
    },
    {
      "type": "Feature",
      "properties": {
        "norad_id": 28380,
        "name": "COSMOS 2407",
        "group": "musson",
        "lat": -82.2925316862609,
        "lon": 94.5898760114261,
        "alt_km": 1004.2103019499273,
        "timestamp": "2025-12-18T10:51:26.076306+00:00",
        "meta_object_name": "COSMOS 2407",
        "meta_object_id": "2004-028A",
        "meta_epoch": "2025-12-17T21:24:15.009696",
        "meta_mean_motion": 13.76314282,
        "meta_eccentricity": 0.00401196,
        "meta_inclination": 82.9601,
        "meta_ra_of_asc_node": 209.0782,
        "meta_arg_of_pericenter": 40.8294,
        "meta_mean_anomaly": 330.587,
        "meta_ephemeris_type": 0,
        "meta_classification_type": "U",
        "meta_norad_cat_id": 28380,
        "meta_element_set_no": 999,
        "meta_rev_at_epoch": 7494,
        "meta_bstar": 7.1193305e-05,
        "meta_mean_motion_dot": 8.5e-07,
        "meta_mean_motion_ddot": 0,
        "tle_line1": "1 28380U 04028A   25351.89184039  .00000085  00000+0  71193-4 0  9990",
        "tle_line2": "2 28380  82.9601 209.0782 0040119  40.8294 330.5870 13.76314282 74946"
      },
      "geometry": {
        "type": "Point",
        "coordinates": [
          94.5898760114261,
          -82.2925316862609
        ]
      }
    },
    {
      "type": "Feature",
      "properties": {
        "norad_id": 28521,
        "name": "COSMOS 2414",
        "group": "musson",
        "lat": 47.665798784878284,
        "lon": -171.8518400300959,
        "alt_km": 924.0741975285027,
        "timestamp": "2025-12-18T10:51:26.076317+00:00",
        "meta_object_name": "COSMOS 2414",
        "meta_object_id": "2005-002A",
        "meta_epoch": "2025-12-17T20:47:02.394816",
        "meta_mean_motion": 13.87903668,
        "meta_eccentricity": 0.00411624,
        "meta_inclination": 82.9488,
        "meta_ra_of_asc_node": 180.7835,
        "meta_arg_of_pericenter": 125.3878,
        "meta_mean_anomaly": 235.1142,
        "meta_ephemeris_type": 0,
        "meta_classification_type": "U",
        "meta_norad_cat_id": 28521,
        "meta_element_set_no": 999,
        "meta_rev_at_epoch": 5866,
        "meta_bstar": 6.1067974e-05,
        "meta_mean_motion_dot": 8.9e-07,
        "meta_mean_motion_ddot": 0,
        "tle_line1": "1 28521U 05002A   25351.86599994  .00000089  00000+0  61068-4 0  9991",
        "tle_line2": "2 28521  82.9488 180.7835 0041162 125.3878 235.1142 13.87903668 58663"
      },
      "geometry": {
        "type": "Point",
        "coordinates": [
          -171.8518400300959,
          47.665798784878284
        ]
      }
    },
    {
      "type": "Feature",
      "properties": {
        "norad_id": 32052,
        "name": "COSMOS 2429",
        "group": "musson",
        "lat": -77.57730148174169,
        "lon": -54.911478648503945,
        "alt_km": 994.3046637811267,
        "timestamp": "2025-12-18T10:51:26.076328+00:00",
        "meta_object_name": "COSMOS 2429",
        "meta_object_id": "2007-038A",
        "meta_epoch": "2025-12-17T16:02:04.029216",
        "meta_mean_motion": 13.75149894,
        "meta_eccentricity": 0.00389773,
        "meta_inclination": 82.9804,
        "meta_ra_of_asc_node": 339.6753,
        "meta_arg_of_pericenter": 24.3748,
        "meta_mean_anomaly": 335.924,
        "meta_ephemeris_type": 0,
        "meta_classification_type": "U",
        "meta_norad_cat_id": 32052,
        "meta_element_set_no": 999,
        "meta_rev_at_epoch": 91670,
        "meta_bstar": 5.3411033e-05,
        "meta_mean_motion_dot": 6.7e-07,
        "meta_mean_motion_ddot": 0,
        "tle_line1": "1 32052U 07038A   25351.66810219  .00000067  00000+0  53411-4 0  9999",
        "tle_line2": "2 32052  82.9804 339.6753 0038977  24.3748 335.9240 13.75149894916703"
      },
      "geometry": {
        "type": "Point",
        "coordinates": [
          -54.911478648503945,
          -77.57730148174169
        ]
      }
    },
    {
      "type": "Feature",
      "properties": {
        "norad_id": 35635,
        "name": "COSMOS 2454",
        "group": "musson",
        "lat": 38.85248974256815,
        "lon": -21.402293331430634,
        "alt_km": 923.9271964721302,
        "timestamp": "2025-12-18T10:51:26.076339+00:00",
        "meta_object_name": "COSMOS 2454",
        "meta_object_id": "2009-039A",
        "meta_epoch": "2025-12-17T18:41:38.948928",
        "meta_mean_motion": 13.8992925,
        "meta_eccentricity": 0.00203284,
        "meta_inclination": 82.9553,
        "meta_ra_of_asc_node": 164.8248,
        "meta_arg_of_pericenter": 60.2397,
        "meta_mean_anomaly": 312.3344,
        "meta_ephemeris_type": 0,
        "meta_classification_type": "U",
        "meta_norad_cat_id": 35635,
        "meta_element_set_no": 999,
        "meta_rev_at_epoch": 83220,
        "meta_bstar": 5.0708597e-05,
        "meta_mean_motion_dot": 7.8e-07,
        "meta_mean_motion_ddot": 0,
        "tle_line1": "1 35635U 09039A   25351.77892302  .00000078  00000+0  50709-4 0  9996",
        "tle_line2": "2 35635  82.9553 164.8248 0020328  60.2397 312.3344 13.89929250832204"
      },
      "geometry": {
        "type": "Point",
        "coordinates": [
          -21.402293331430634,
          38.85248974256815
        ]
      }
    },
    {
      "type": "Feature",
      "properties": {
        "norad_id": 36519,
        "name": "COSMOS 2463",
        "group": "musson",
        "lat": 14.873605619256683,
        "lon": -159.36580031150154,
        "alt_km": 1001.7420794308855,
        "timestamp": "2025-12-18T10:51:26.076350+00:00",
        "meta_object_name": "COSMOS 2463",
        "meta_object_id": "2010-017A",
        "meta_epoch": "2025-12-17T20:53:33.803232",
        "meta_mean_motion": 13.71649617,
        "meta_eccentricity": 0.003474,
        "meta_inclination": 82.9607,
        "meta_ra_of_asc_node": 22.9421,
        "meta_arg_of_pericenter": 273.2868,
        "meta_mean_anomaly": 260.4471,
        "meta_ephemeris_type": 0,
        "meta_classification_type": "U",
        "meta_norad_cat_id": 36519,
        "meta_element_set_no": 999,
        "meta_rev_at_epoch": 78307,
        "meta_bstar": 6.4142203e-05,
        "meta_mean_motion_dot": 7.3e-07,
        "meta_mean_motion_ddot": 0,
        "tle_line1": "1 36519U 10017A   25351.87053013  .00000073  00000+0  64142-4 0  9996",
        "tle_line2": "2 36519  82.9607  22.9421 0034740 273.2868 260.4471 13.71649617783076"
      },
      "geometry": {
        "type": "Point",
        "coordinates": [
          -159.36580031150154,
          14.873605619256683
        ]
      }
    }
  ]
}